start=new Date('2021-09-15T00:00:00.000Z').valueOf();
sats=[{"ARG_OF_PERICENTER":"105.7397","TLE_LINE2":"2 45066  53.0556  54.7695 0001582 105.7397 254.3767 15.06402097 90020","RCS_SIZE":"LARGE","PERIAPSIS":"546.112","NORAD_CAT_ID":"45066","EPOCH":"2021-09-14T19:56:30.402816","REF_FRAME":"TEME","MEAN_MOTION_DDOT":"0.0000000000000","CENTER_NAME":"EARTH","LAUNCH_DATE":"2020-01-29","OBJECT_TYPE":"PAYLOAD","PERIOD":"95.592","MEAN_ELEMENT_THEORY":"SGP4","OBJECT_NAME":"STARLINK-1145","CLASSIFICATION_TYPE":"U","FILE":"3115650","INCLINATION":"53.0556","ELEMENT_SET_NO":"999","MEAN_MOTION_DOT":"0.00000612","GP_ID":"184721181","SITE":"AFETR","MEAN_ANOMALY":"254.3767","COUNTRY_CODE":"US","OBJECT_ID":"2020-006Y","TLE_LINE1":"1 45066U 20006Y   21257.83090744  .00000612  00000-0  59984-4 0  9999","APOAPSIS":"548.303","TIME_SYSTEM":"UTC","BSTAR":"0.00005998400000","SEMIMAJOR_AXIS":"6925.342","EPHEMERIS_TYPE":"0","ECCENTRICITY":"0.00015820","REV_AT_EPOCH":"9002","MEAN_MOTION":"15.06402097","DECAY_DATE":null,"RA_OF_ASC_NODE":"54.7695"},{"LAUNCH_DATE":"2020-01-29","MEAN_ELEMENT_THEORY":"SGP4","PERIOD":"95.592","OBJECT_TYPE":"PAYLOAD","CLASSIFICATION_TYPE":"U","OBJECT_NAME":"STARLINK-1150","ELEMENT_SET_NO":"999","INCLINATION":"53.0545","FILE":"3115650","ARG_OF_PERICENTER":"86.6270","TLE_LINE2":"2 45067  53.0545  55.5921 0001661  86.6270 273.4909 15.06399459 90000","RCS_SIZE":"LARGE","EPOCH":"2021-09-14T15:31:07.802112","NORAD_CAT_ID":"45067","PERIAPSIS":"546.065","CENTER_NAME":"EARTH","MEAN_MOTION_DDOT":"0.0000000000000","REF_FRAME":"TEME","TLE_LINE1":"1 45067U 20006Z   21257.64661808  .00000881  00000-0  78016-4 0  9999","TIME_SYSTEM":"UTC","APOAPSIS":"548.366","BSTAR":"0.00007801600000","EPHEMERIS_TYPE":"0","ECCENTRICITY":"0.00016610","SEMIMAJOR_AXIS":"6925.350","REV_AT_EPOCH":"9000","RA_OF_ASC_NODE":"55.5921","DECAY_DATE":null,"MEAN_MOTION":"15.06399459","MEAN_MOTION_DOT":"0.00000881","GP_ID":"184721431","SITE":"AFETR","COUNTRY_CODE":"US","MEAN_ANOMALY":"273.4909","OBJECT_ID":"2020-006Z"},{"REF_FRAME":"TEME","MEAN_MOTION_DDOT":"0.0000000000000","CENTER_NAME":"EARTH","PERIAPSIS":"546.242","NORAD_CAT_ID":"45068","EPOCH":"2021-09-14T20:01:49.433088","RCS_SIZE":"LARGE","TLE_LINE2":"2 45068  53.0560  54.7592 0001399 105.1867 254.9276 15.06400970 90024","ARG_OF_PERICENTER":"105.1867","FILE":"3115650","INCLINATION":"53.0560","ELEMENT_SET_NO":"999","OBJECT_NAME":"STARLINK-1161","CLASSIFICATION_TYPE":"U","OBJECT_TYPE":"PAYLOAD","PERIOD":"95.592","MEAN_ELEMENT_THEORY":"SGP4","LAUNCH_DATE":"2020-01-29","COUNTRY_CODE":"US","MEAN_ANOMALY":"254.9276","OBJECT_ID":"2020-006AA","SITE":"AFETR","GP_ID":"184721683","MEAN_MOTION_DOT":"-0.00001088","MEAN_MOTION":"15.06400970","RA_OF_ASC_NODE":"54.7592","DECAY_DATE":null,"REV_AT_EPOCH":"9002","SEMIMAJOR_AXIS":"6925.346","EPHEMERIS_TYPE":"0","ECCENTRICITY":"0.00013990","TLE_LINE1":"1 45068U 20006AA  21257.83459992 -.00001088  00000-0 -54130-4 0  9993","APOAPSIS":"548.179","TIME_SYSTEM":"UTC","BSTAR":"-0.00005413000000"},{"DECAY_DATE":null,"RA_OF_ASC_NODE":"55.7447","MEAN_MOTION":"15.06389640","REV_AT_EPOCH":"8999","EPHEMERIS_TYPE":"0","ECCENTRICITY":"0.00017260","SEMIMAJOR_AXIS":"6925.380","TLE_LINE1":"1 45071U 20006AD  21257.61345027 -.00000616  00000-0 -22452-4 0  9994","APOAPSIS":"548.441","BSTAR":"-0.00002245200000","TIME_SYSTEM":"UTC","OBJECT_ID":"2020-006AD","COUNTRY_CODE":"US","MEAN_ANOMALY":"258.8446","SITE":"AFETR","GP_ID":"184721934","MEAN_MOTION_DOT":"-0.00000616","ELEMENT_SET_NO":"999","INCLINATION":"53.0553","FILE":"3115650","CLASSIFICATION_TYPE":"U","OBJECT_NAME":"STARLINK-1167","MEAN_ELEMENT_THEORY":"SGP4","PERIOD":"95.593","OBJECT_TYPE":"PAYLOAD","LAUNCH_DATE":"2020-01-29","CENTER_NAME":"EARTH","MEAN_MOTION_DDOT":"0.0000000000000","REF_FRAME":"TEME","EPOCH":"2021-09-14T14:43:22.103328","NORAD_CAT_ID":"45071","PERIAPSIS":"546.050","RCS_SIZE":"LARGE","TLE_LINE2":"2 45071  53.0553  55.7447 0001726 101.2737 258.8446 15.06389640 89993","ARG_OF_PERICENTER":"101.2737"},{"ARG_OF_PERICENTER":"95.7117","TLE_LINE2":"2 45072  53.0559  54.8425 0001710  95.7117 264.4067 15.06397734 90029","RCS_SIZE":"LARGE","PERIAPSIS":"546.036","EPOCH":"2021-09-14T19:35:16.738944","NORAD_CAT_ID":"45072","MEAN_MOTION_DDOT":"0.0000000000000","REF_FRAME":"TEME","CENTER_NAME":"EARTH","LAUNCH_DATE":"2020-01-29","PERIOD":"95.592","OBJECT_TYPE":"PAYLOAD","MEAN_ELEMENT_THEORY":"SGP4","CLASSIFICATION_TYPE":"U","OBJECT_NAME":"STARLINK-1168","FILE":"3115650","ELEMENT_SET_NO":"999","INCLINATION":"53.0559","MEAN_MOTION_DOT":"0.00000898","GP_ID":"184720682","SITE":"AFETR","COUNTRY_CODE":"US","MEAN_ANOMALY":"264.4067","OBJECT_ID":"2020-006AE","APOAPSIS":"548.405","TLE_LINE1":"1 45072U 20006AE  21257.81616596  .00000898  00000-0  79218-4 0  9991","BSTAR":"0.00007921800000","TIME_SYSTEM":"UTC","SEMIMAJOR_AXIS":"6925.356","EPHEMERIS_TYPE":"0","ECCENTRICITY":"0.00017100","REV_AT_EPOCH":"9002","MEAN_MOTION":"15.06397734","RA_OF_ASC_NODE":"54.8425","DECAY_DATE":null},{"COUNTRY_CODE":"US","OBJECT_ID":"2020-006AF","MEAN_ANOMALY":"252.1892","SITE":"AFETR","GP_ID":"184720932","MEAN_MOTION_DOT":"-0.00000794","DECAY_DATE":null,"RA_OF_ASC_NODE":"55.0108","MEAN_MOTION":"15.06393403","REV_AT_EPOCH":"9001","ECCENTRICITY":"0.00015950","EPHEMERIS_TYPE":"0","SEMIMAJOR_AXIS":"6925.369","TIME_SYSTEM":"UTC","TLE_LINE1":"1 45073U 20006AF  21257.77562307 -.00000794  00000-0 -34416-4 0  9995","APOAPSIS":"548.338","BSTAR":"-0.00003441600000","CENTER_NAME":"EARTH","REF_FRAME":"TEME","MEAN_MOTION_DDOT":"0.0000000000000","NORAD_CAT_ID":"45073","EPOCH":"2021-09-14T18:36:53.833248","PERIAPSIS":"546.129","TLE_LINE2":"2 45073  53.0552  55.0108 0001595 107.9271 252.1892 15.06393403 90010","RCS_SIZE":"LARGE","ARG_OF_PERICENTER":"107.9271","INCLINATION":"53.0552","ELEMENT_SET_NO":"999","FILE":"3115650","OBJECT_NAME":"STARLINK-1170","CLASSIFICATION_TYPE":"U","MEAN_ELEMENT_THEORY":"SGP4","OBJECT_TYPE":"PAYLOAD","PERIOD":"95.593","LAUNCH_DATE":"2020-01-29"},{"TLE_LINE1":"1 45074U 20006AG  21257.62819189 -.00000376  00000-0 -63157-5 0  9994","BSTAR":"-0.00000631570000","APOAPSIS":"548.474","TIME_SYSTEM":"UTC","SEMIMAJOR_AXIS":"6925.367","ECCENTRICITY":"0.00017930","EPHEMERIS_TYPE":"0","REV_AT_EPOCH":"8999","MEAN_MOTION":"15.06393840","DECAY_DATE":null,"RA_OF_ASC_NODE":"55.6819","MEAN_MOTION_DOT":"-0.00000376","GP_ID":"184722183","SITE":"AFETR","COUNTRY_CODE":"US","OBJECT_ID":"2020-006AG","MEAN_ANOMALY":"263.8072","LAUNCH_DATE":"2020-01-29","PERIOD":"95.593","OBJECT_TYPE":"PAYLOAD","MEAN_ELEMENT_THEORY":"SGP4","CLASSIFICATION_TYPE":"U","OBJECT_NAME":"STARLINK-1172","FILE":"3115650","ELEMENT_SET_NO":"999","INCLINATION":"53.0558","ARG_OF_PERICENTER":"96.3121","RCS_SIZE":"LARGE","TLE_LINE2":"2 45074  53.0558  55.6819 0001793  96.3121 263.8072 15.06393840 89996","PERIAPSIS":"545.991","EPOCH":"2021-09-14T15:04:35.779296","NORAD_CAT_ID":"45074","MEAN_MOTION_DDOT":"0.0000000000000","REF_FRAME":"TEME","CENTER_NAME":"EARTH"},{"MEAN_MOTION":"15.06398535","DECAY_DATE":null,"RA_OF_ASC_NODE":"55.8298","REV_AT_EPOCH":"8999","SEMIMAJOR_AXIS":"6925.353","ECCENTRICITY":"0.00017390","EPHEMERIS_TYPE":"0","APOAPSIS":"548.422","TLE_LINE1":"1 45075U 20006AH  21257.59501015  .00000180  00000-0  30968-4 0  9991","BSTAR":"0.00003096800000","TIME_SYSTEM":"UTC","MEAN_ANOMALY":"255.7451","COUNTRY_CODE":"US","OBJECT_ID":"2020-006AH","SITE":"AFETR","GP_ID":"184722434","MEAN_MOTION_DOT":"0.00000180","FILE":"3115650","ELEMENT_SET_NO":"999","INCLINATION":"53.0560","CLASSIFICATION_TYPE":"U","OBJECT_NAME":"STARLINK-1174","PERIOD":"95.592","OBJECT_TYPE":"PAYLOAD","MEAN_ELEMENT_THEORY":"SGP4","LAUNCH_DATE":"2020-01-29","MEAN_MOTION_DDOT":"0.0000000000000","REF_FRAME":"TEME","CENTER_NAME":"EARTH","PERIAPSIS":"546.014","EPOCH":"2021-09-14T14:16:48.876960","NORAD_CAT_ID":"45075","TLE_LINE2":"2 45075  53.0560  55.8298 0001739 104.3731 255.7451 15.06398535 89997","RCS_SIZE":"LARGE","ARG_OF_PERICENTER":"104.3731"},{"MEAN_ANOMALY":"256.9698","COUNTRY_CODE":"US","OBJECT_ID":"2020-006AJ","SITE":"AFETR","GP_ID":"184721182","MEAN_MOTION_DOT":"-0.00000434","DECAY_DATE":null,"RA_OF_ASC_NODE":"54.8987","MEAN_MOTION":"15.06398140","REV_AT_EPOCH":"9002","EPHEMERIS_TYPE":"0","ECCENTRICITY":"0.00016800","SEMIMAJOR_AXIS":"6925.354","TIME_SYSTEM":"UTC","TLE_LINE1":"1 45076U 20006AJ  21257.80142556 -.00000434  00000-0 -10212-4 0  9991","APOAPSIS":"548.383","BSTAR":"-0.00001021200000","CENTER_NAME":"EARTH","REF_FRAME":"TEME","MEAN_MOTION_DDOT":"0.0000000000000","NORAD_CAT_ID":"45076","EPOCH":"2021-09-14T19:14:03.168384","PERIAPSIS":"546.056","TLE_LINE2":"2 45076  53.0551  54.8987 0001680 103.1479 256.9698 15.06398140 90027","RCS_SIZE":"LARGE","ARG_OF_PERICENTER":"103.1479","INCLINATION":"53.0551","ELEMENT_SET_NO":"999","FILE":"3115650","OBJECT_NAME":"STARLINK-1180","CLASSIFICATION_TYPE":"U","MEAN_ELEMENT_THEORY":"SGP4","OBJECT_TYPE":"PAYLOAD","PERIOD":"95.592","LAUNCH_DATE":"2020-01-29"},{"REF_FRAME":"TEME","MEAN_MOTION_DDOT":"0.0000000000000","CENTER_NAME":"EARTH","PERIAPSIS":"445.627","NORAD_CAT_ID":"45077","EPOCH":"2021-09-14T18:35:38.707584","TLE_LINE2":"2 45077  53.0562  44.6526 0001234  92.8751 267.2394 15.39878770 90169","RCS_SIZE":"LARGE","ARG_OF_PERICENTER":"92.8751","FILE":"3115650","INCLINATION":"53.0562","ELEMENT_SET_NO":"999","OBJECT_NAME":"STARLINK-1182","CLASSIFICATION_TYPE":"U","OBJECT_TYPE":"PAYLOAD","PERIOD":"93.514","MEAN_ELEMENT_THEORY":"SGP4","LAUNCH_DATE":"2020-01-29","OBJECT_ID":"2020-006AK","COUNTRY_CODE":"US","MEAN_ANOMALY":"267.2394","SITE":"AFETR","GP_ID":"184721432","MEAN_MOTION_DOT":"0.00001993","MEAN_MOTION":"15.39878770","RA_OF_ASC_NODE":"44.6526","DECAY_DATE":null,"REV_AT_EPOCH":"9016","SEMIMAJOR_AXIS":"6824.604","EPHEMERIS_TYPE":"0","ECCENTRICITY":"0.00012340","TLE_LINE1":"1 45077U 20006AK  21257.77475356  .00001993  00000-0  59313-4 0  9999","BSTAR":"0.00005931300000","APOAPSIS":"447.312","TIME_SYSTEM":"UTC"}];
